#dP2018  3 30  0  0  0.00000000      96 __u+U ITR00 FIT  IAC
## 1994 432000.00000000   900.00000000 58207 0.0000000000000
+   88   C01C02C03C04C05C06C07C08C09C10C11C12C13C14E01E02E03
+        E04E05E07E08E09E11E12E14E18E19E24E26E30G01G02G03G05
+        G06G07G08G09G10G11G12G13G14G15G16G17G18G19G20G21G22
+        G23G24G25G26G27G28G29G30G31G32J01J02J03R01R02R03R04
+        R05R06R07R08R09R10R11R13R14R15R16R17R18R19R20R21R22
+        R23R24R26  0  0  0  0  0  0  0  0  0  0  0  0  0  0
++        12 11 12 13 11  9  9  9  8  9  8  8  8  8  6  6  6
++         6  6  6  6  6  7  6  6  7  6  6  6  6  3  3  3  3
++         3  4  3  3  3  3  4  4  3  4  4  3  3  3  3  5  3
++         3  3  3  0  5  3  3  3  3  3  0  0 11  5  5  5  6
++         6  5  5  5  5  5  5  5  6  6  5  5  5  5  5  5  5
++         5  5  9  0  0  0  0  0  0  0  0  0  0  0  0  0  0
%c M  cc GPS ccc cccc cccc cccc cccc ccccc ccccc ccccc ccccc
%c cc cc ccc ccc cccc cccc cccc cccc ccccc ccccc ccccc ccccc
%f  0.0000000  0.000000000  0.00000000000  0.000000000000000
%f  0.0000000  0.000000000  0.00000000000  0.000000000000000
%i    0    0    0    0      0      0      0      0         0
%i    0    0    0    0      0      0      0      0         0
/* INFORMATION & ANALYSIS CENTER (IAC) OF MCC   (RAPID DATA)
/* S/V CLOCKS ARE ALIGNED TO GPS & GLONASS TIME RESPECTIVELY
/* USING THE BROADCAST EPHEMERIS                            
/* PCV:IGS14_1992 OL/AL:FES2004  NONE     YN ORB:CoN CLK:CoN
*  2018 03 30 21 30  0.00000000
PC01 -32335.931936  27051.393681   -998.017890    549.936135
PC02   4469.255300  41922.596355    569.059883    640.468987
PC03 -14723.221759  39515.449627   -897.106773   -226.349505
PC04      0.000000      0.000000      0.000000 999999.999999
PC05  21888.103025  36037.253849    836.544308   -198.609708
PC06  -7874.386694  24861.862454  33438.463333    557.840033
PC07 -23031.129363  27806.270106 -22004.842963    913.343712
PC08 -14000.706100  37590.428744 -12523.427728    258.760340
PC09   7182.797372  32220.369685  26568.231617   -266.090240
PC10 -10321.786106  28597.805486 -29247.156490   -121.615580
PC11  14638.903765  19995.163008  12821.982004   -448.613672
PC12   4156.930481  26950.047573  -5654.325041    402.976555
PC13  -4572.332924  41705.323473   2494.534406   -268.351658
PC14  21481.228643  13456.904065  11793.081525    343.352144
PE01   4032.666929 -18550.600145  22705.231031   -310.304833
PE02  -3992.659352  18545.217308 -22725.027099      9.110399
PE03   7213.407671  21273.919580  19275.614146    -15.531804
PE04 -23033.173527 -18272.991812  -3398.358208     -4.708183
PE05 -12870.550981  11817.435990  23896.190150    293.973723
PE07  25385.711560   4543.660981 -14516.953408     58.834579
PE08  23203.022459  18046.550911   3452.856866   6613.942606
PE09 -25407.582089  -4404.003316  14551.793875   6833.923553
PE11 -16578.126795   2959.255076 -24341.397572   1839.214538
PE12 -11964.173818 -19038.711882 -19226.113817   3829.019300
PE14 -13610.965921  16978.127867 -24238.897814   6607.103285
PE18   9530.818924 -12626.702758  17217.679398   6318.847258
PE19  -5448.213817 -20748.041092 -20388.458185     20.851861
PE24 -27208.733249   6344.597109   9733.496035   6785.169691
PE26  11675.228235 -22513.457775  15271.571325   6105.803963
PE30  16511.873662   8647.462994 -23010.458136   5960.082130
PG01  13702.108346 -22479.793369   1794.293362    -37.470610
PG02 -17310.306857   5024.698868 -18865.889226    158.990819
PG03  15214.493207 -12741.920068 -17646.481678     40.195392
PG05 -26552.626108   2172.292178   1250.627581    -10.926639
PG06 -12027.507214  -9176.729075 -21792.294879    410.886555
PG07   2615.436712 -22978.470728  12853.467297    215.031367
PG08  11245.990489 -10240.139897  21816.960071    -96.134412
PG09  -6055.139891 -23612.188738 -10567.263777    509.199427
PG10  17253.792264  11270.987972  16879.029190    174.995277
PG11   9298.401424 -22815.414414   9545.537944   -737.541091
PG12 -17417.892251  10660.334975 -17054.230557    342.394682
PG13 -16052.523564   -281.779198  21042.270455    -95.344827
PG14  17766.014341  14767.667217 -12972.986525    -95.687925
PG15 -11201.416933  11304.543827  21028.092294   -355.964972
PG16  26744.648626    526.481830   1383.579514     28.974805
PG17 -15505.116368 -20885.916964  -5304.183251   -111.224147
PG18  16515.282417 -18068.240060   9618.056624     -9.387404
PG19 -17204.909748 -15881.210846 -12634.074969   -447.196822
PG20 -10856.447459  15462.653252  18524.875823    504.547805
PG21   1669.885093  22185.595925  15309.551325   -413.337971
PG22  21524.402891 -10393.026465 -11337.363617   -341.129908
PG23   5158.205814 -17451.431738 -18923.289753   -218.295209
PG24 -14718.416838  21238.659280   5332.769019    -47.930762
PG25  -3010.004158  14937.404613 -21909.230903   -561.858405
PG26      0.000000      0.000000      0.000000 999999.999999
PG27  17896.400530   4291.794793  19178.861754    370.105624
PG28 -13106.762454 -13555.078428  19310.698038    701.829043
PG29   2088.320940  22834.481528 -13437.720516    474.058598
PG30  -4555.968915 -18350.424767  18595.429502     89.716453
PG31  13041.713162   7685.908490 -21780.706747    131.844981
PG32  16545.160758  20306.821149  -4619.241166   -524.817360
PJ01 -28940.085153  24553.579898  23330.823399 999999.999999
PJ02 -34175.063823  24528.555692   6644.629192 999999.999999
PJ03 -21983.751450  19928.477208 -25356.770906    -16.311209
PR01  20399.837815  12977.516894   8109.565049     24.127946
PR02  22444.309024   4063.629892 -11430.844093    302.380161
PR03  10435.145703  -6943.503018 -22182.653857    128.114458
PR04  -8155.169408 -13886.789160 -19759.456007    255.293315
PR05 -21318.379205 -12454.733243  -6432.860456   -274.225225
PR06 -22181.218891  -3029.682510  12192.274545    129.649266
PR07  -9977.091596   7231.165230  22364.509087    -33.903764
PR08   7473.208311  13816.484297  20150.701527     22.747245
PR09 -21279.164828   8355.532675  11389.914034     38.156572
PR10 -18536.087085  16533.403352  -6004.058845     21.544267
PR11  -4624.521649  15073.119790 -20056.412082    -25.268653
PR13  21092.317615  -9108.011893 -11104.459161     -8.945846
PR14  18534.761166 -16567.404369   5703.114383     25.908155
PR15   8262.951676 -16075.679255  18048.965468     -8.083300
PR16 -11074.465226  -5059.782667  22370.279814     89.075022
PR17   6219.504340 -17800.330769  17206.900127    120.831699
PR18  -1644.089189 -25342.153941   1989.198906    190.116464
PR19  -8281.917051 -19040.846080 -14805.856361    -48.719103
PR20 -10551.767143   -220.287601 -23209.022191   -332.571397
PR21  -6021.807417  18000.315748 -17026.935562     22.966329
PR22   2510.683716  25457.934033     26.490066    -30.845722
PR23   9550.651702  16000.100114  17422.575429    144.818709
PR24  10526.474250   -765.286326  23202.841608   -164.359381
PR26 -10647.340886   -586.068603 -23157.375621 999999.999999
EOF
